STARLINK-31174          
1 58808U 24012X   26068.31712500 -.00000351  00000+0 -32374-5 0  9993
2 58808  42.9960 166.9497 0000575 271.4466  88.6319 15.27564523121188
HAWK-11C                
1 62381U 24247E   26068.51221537  .00009223  00000+0  33290-3 0  9992
2 62381  45.0045 114.8762 0005900 329.7040  30.3502 15.28848020 67743
